#aV2006  7 13  0  0   .00000000      96 DD+AD WGS84 FIT  NGA
## 1383 345600.00000000   900.00000000 53929  .0000000000000
+   29     1  2  3  4  5  6  7  8  9 10 11 13 14 15 16 17 18
+         19 20 21 22 23 24 25 26 27 28 29 30  0  0  0  0  0
+          0  0  0  0  0  0  0  0  0  0  0  0  0  0  0  0  0
+          0  0  0  0  0  0  0  0  0  0  0  0  0  0  0  0  0
+          0  0  0  0  0  0  0  0  0  0  0  0  0  0  0  0  0
++         0  0  0  0  0  0  0  0  0  0  0  0  0  0  0  0  0
++         0  0  0  0  0  0  0  0  0  0  0  0  0  0  0  0  0
++         0  0  0  0  0  0  0  0  0  0  0  0  0  0  0  0  0
++         0  0  0  0  0  0  0  0  0  0  0  0  0  0  0  0  0
++         0  0  0  0  0  0  0  0  0  0  0  0  0  0  0  0  0
%c cc cc ccc ccc cccc cccc cccc cccc ccccc ccccc ccccc ccccc
%c cc cc ccc ccc cccc cccc cccc cccc ccccc ccccc ccccc ccccc
%f  0.0000000  0.000000000  0.00000000000  0.000000000000000
%f  0.0000000  0.000000000  0.00000000000  0.000000000000000
%i    0    0    0    0      0      0      0      0         0
%i    0    0    0    0      0      0      0      0         0
/*      NGA, ST. LOUIS,MO.                                  
/*   EPHEMERIS COMPUTED FROM  3 DAYS OF DATA                
/* CCCCCCCCCCCCCCCCCCCCCCCCCCCCCCCCCCCCCCCCCCCCCCCCCCCCCCCCC
/* CCCCCCCCCCCCCCCCCCCCCCCCCCCCCCCCCCCCCCCCCCCCCCCCCCCCCCCCC
*  2006  7 13  3 30   .00000000                                                 
P  1  21305.946261  15648.983387  -2674.042717     65.133313                    
V  1   1537.208520   3793.359019  32071.087260       .020731                    
P  2 -13432.714773 -10647.371443 -20591.682149     13.253741                    
V  2   4280.566983 -25224.802367  10159.807433       .036368                    
P  3  23992.865377  10206.869331   5696.971053    182.013048                    
V  3   4353.748389   6974.307150 -29631.927557       .918892                    
P  4  -7099.114397 -21075.358275 -14291.810160    273.395643                    
V  4   5369.559564 -17640.919910  23753.063961       .076685                    
P  5 -22962.285336  13075.267238  -1709.739337    217.961170                    
V  5  -3391.714821  -2376.655343  31261.164120       .335451                    
P  6  -4878.882973  15495.632985 -20807.009792    587.034608                    
V  6 -22320.638848 -15195.649837  -6094.964186       .066004                    
P  7  16454.055504  18825.191011  -8448.804119    540.971063                    
V  7 -11283.172641  -3469.780768 -28667.244023      -.008867                    
P  8   -421.112273 -25295.601111   7209.470103    -72.290619                    
V  8   4260.210093  -8821.646545 -30509.872597      -.013015                    
P  9 -14201.877731  11447.320710  18646.290262     27.758107                    
V  9    784.214836 -24999.502711  15752.793056       .012900                    
P 10 -22986.763141  -1118.422581 -13621.638615     86.501378                    
V 10  15274.851325  -7624.724960 -25032.002790       .006864                    
P 11  13886.225431 -14008.328534  17611.184632    338.961292                    
V 11   2983.784692  22805.356998  15981.238795       .021809                    
P 13   4097.465777 -14946.635687 -21673.173374     76.771126                    
V 13  21294.584499  16926.062375  -7630.418537       .030544                    
P 14  13006.247716  20140.473357  11560.721362     -9.985233                    
V 14 -12387.981631  -7753.237874  27538.345738       .008381                    
P 15    250.248777  25115.910784   7804.049771    643.994416                    
V 15  -5204.514027   9345.565326 -29772.368808       .065225                    
P 16  19902.167876   4764.436636 -16908.707503     56.261806                    
V 16 -19435.203271   9540.959809 -19973.254518       .028609                    
P 17 -12260.226881 -20276.297019  12098.135767    100.236824                    
V 17  13519.815537   7594.371872  26320.725625       .000156                    
P 18 -10157.893976  16908.373999  17740.863460   -242.872983                    
V 18 -21750.444281   5847.744952 -18447.615646      -.013498                    
P 19  20817.721339   2940.886888  16373.539186       .265376                    
V 19  14233.175806  14971.615193 -20869.469045       .024536                    
P 20  21989.699217 -13709.164096  -5861.333039    -24.284694                    
V 20   7859.159995   -224.625327  30515.814355       .004335                    
P 21  -5013.852212  25767.391153   -682.936637     41.304676                    
V 21  -3639.027325  -1619.718483 -31691.435626       .022900                    
P 22   4469.802401  14757.554326  21779.586680    115.707915                    
V 22 -25804.231218   8942.780777   -788.206128       .036557                    
P 23  15040.573159  -6621.945832 -20999.445937    138.444168                    
V 23  20463.454093  16656.190984   9279.004450      -.003512                    
P 24     56.309737 -25493.359959  -6704.754341     20.243036                    
V 24   4588.939272  -8172.354495  30337.026059       .028361                    
P 25  11481.504260  16176.461520 -17196.056582    132.149381                    
V 25  -2976.891883  22581.718592  18959.178360       .754946                    
P 26 -21693.405453  -5668.581879  14281.579296   -177.900704                    
V 26 -13603.487330 -12667.947536 -24431.996003      -.129889                    
P 27   3541.241271 -25987.810004  -2246.167794     57.716915                    
V 27   2894.442830   3843.177739 -31768.729340       .017898                    
P 28   -683.451840 -15870.694727  21531.538950     23.265671                    
V 28  25160.013281  -8994.790082  -6253.128552      -.009189                    
P 29 -22735.478155  -7181.070901  12235.147178    628.492101                    
V 29 -11100.176948 -10222.922508 -26858.686410       .028771                    
P 30 -15015.377847  17431.145434 -13454.214930      3.470560                    
V 30 -16297.090249   4488.743142  24642.787805       .011178                    
EOF
